BEIDOU-3 M24 (C46)      
1 44542U 19061A   25012.93298390  .00000070  00000+0  00000+0 0  9994
2 44542  54.4232 200.2754 0008958  19.9168 340.1336  1.86229167 36107
BEIDOU-3 M23 (C45)      
1 44543U 19061B   25014.40719319  .00000051  00000+0  00000+0 0  9997
2 44543  54.4217 200.1941 0005572  19.3109 161.7489  1.86229464 36135
BEIDOU-3 IGSO-3 (C40)   
1 44709U 19073A   25014.15050458 -.00000181  00000+0  00000+0 0  9993
2 44709  55.6895 286.4863 0041062 183.9500 176.0892  1.00292729 19252
BEIDOU-3 M22 (C44)      
1 44793U 19078A   25013.31386229 -.00000096  00000+0  00000+0 0  9991
2 44793  54.3974 318.0519 0006508  16.8697 343.1510  1.86231886 34966
BEIDOU-3 M21 (C43)      
1 44794U 19078B   25012.36984712 -.00000097  00000+0  00000+0 0  9998
2 44794  54.3717 318.0564 0004697   6.5204 353.4825  1.86227609 34959
BEIDOU-3 M19 (C41)      
1 44864U 19090A   25014.26954013 -.00000041  00000+0  00000+0 0  9991
2 44864  56.1018  80.0071 0018776 281.4279 104.4600  1.86231448 34578
BEIDOU-3 M20 (C42)      
1 44865U 19090B   25014.09478647 -.00000042  00000+0  00000+0 0  9998
2 44865  56.1035  80.0466 0016168 293.4135  65.0012  1.86231415 34543
BEIDOU-3 G2 (C60)       
1 45344U 20017A   25014.61935426 -.00000143  00000+0  00000+0 0  9995
2 45344   2.6160  36.7374 0003300 262.3305 118.2273  1.00272817 18061
